PROBA-1                 
1 26958U 01049B   19119.46600055 -.00000465  00000-0 -34659-4 0  9999
2 26958  97.6627  76.8901 0071840 206.7256 153.0239 14.95367895953320
BIRD 2                  
1 26959U 01049C   19119.17948119  .00001261  00000-0  37689-4 0  9993
2 26959  97.8657 118.8949 0009749 123.6266 236.5908 15.36697708970832
CUTE-1 (CO-55)          
1 27844U 03031E   19119.49023197  .00000049  00000-0  41938-4 0  9990
2 27844  98.6856 128.4511 0010021 169.5674 190.5713 14.22172639821153
CUBESAT XI-IV (CO-57)   
1 27848U 03031J   19118.97546094  .00000032  00000-0  34539-4 0  9993
2 27848  98.6934 128.4327 0009646 182.1270 177.9868 14.21768280820930
GENESIS 1               
1 29252U 06029A   19118.81896923  .00000492  00000-0  33976-4 0  9990
2 29252  64.5051 220.8034 0051746 246.2958 113.2731 15.17674462705015
FALCONSAT-3             
1 30776U 07006E   19119.25321440  .00002549  00000-0  72479-4 0  9991
2 30776  35.4360  52.5320 0002609 347.2973  12.7688 15.35973854672923
GENESIS 2               
1 31789U 07028A   19119.53135730  .00000329  00000-0  26764-4 0  9996
2 31789  64.5047 259.0324 0046513 292.8306  66.7908 15.16898163652221
APRIZESAT 4             
1 35684U 09041D   19119.45150964  .00000055  00000-0  14846-4 0  9992
2 35684  98.2209  82.6069 0048479  66.3375 294.2913 14.79199509525838
APRIZESAT 3             
1 35686U 09041F   19118.90826289  .00000052  00000-0  12536-4 0  9994
2 35686  98.2396 156.5233 0072078 322.0766  37.5385 14.87294269528314
PROBA-2                 
1 36037U 09059B   19119.12312981 -.00000012  00000-0  78151-5 0  9991
2 36037  98.2353 311.1038 0014259  43.4660 316.7658 14.53068012503017
APRIZESAT 5             
1 37792U 11044E   19119.49214676  .00000045  00000-0  14888-4 0  9990
2 37792  98.4142 296.6937 0059151  45.9282 314.6773 14.75311010414318
APRIZESAT 6             
1 37793U 11044F   19118.92782035  .00000055  00000-0  17240-4 0  9993
2 37793  98.3823 274.4477 0048200  78.3087  42.5811 14.72381296413288
TET-1                   
1 38710U 12039D   19119.05045381  .00002053  00000-0  39397-4 0  9996
2 38710  97.6189 117.9321 0000366  99.5240 260.6052 15.49296660379535
STSAT-2C                
1 39068U 13003A   19119.51800207  .00037677 -13349-6  15295-3 0  9999
2 39068  80.1761 277.3455 0160369 312.0685  46.7015 15.69016143337376
PROBA-V                 
1 39159U 13021A   19119.22639769 -.00000039  00000-0  14115-5 0  9999
2 39159  98.5131 186.4217 0003776 182.4958 177.6201 14.22971855310456
STPSAT-3                
1 39380U 13064A   19119.20718006  .00001297  00000-0  41333-4 0  9999
2 39380  40.5016  39.4422 0002579 157.8785 202.2141 15.36864172304517
APRIZESAT 7             
1 39416U 13066A   19119.54057931  .00000048  00000-0  11792-4 0  9990
2 39416  97.5489 146.2996 0041552 169.0816 191.1311 14.83878090294260
APRIZESAT 8             
1 39425U 13066K   19118.63245016  .00000048  00000-0  12487-4 0  9994
2 39425  97.5583 136.7301 0051523 195.5090 164.4547 14.81103840293610
BUGSAT-1 (TITA)         
1 40014U 14033E   19119.38589885 -.00000120  00000-0 -51272-5 0  9992
2 40014  98.0106  65.8173 0030348 226.3244 133.5474 14.95239786264986
SAUDISAT 4              
1 40016U 14033G   19118.70703744  .00000004  00000-0  80986-5 0  9994
2 40016  97.7706 353.1694 0046962 250.9126 108.6995 14.75234537261482
APRIZESAT 9             
1 40018U 14033J   19119.51270075  .00000014  00000-0  10468-4 0  9990
2 40018  97.7501 336.5391 0070107 289.1759  70.1870 14.69924030260571
APRIZESAT 10            
1 40019U 14033K   19119.55886471 -.00000005  00000-0  76707-5 0  9998
2 40019  97.7502 327.7036 0083242 312.8087  46.6140 14.66986447260118
TDS 1                   
1 40076U 14037H   19119.10345872 -.00000080  00000-0 -23953-5 0  9990
2 40076  98.4109 270.4390 0007398 147.0763 213.0938 14.84189073259850
TIANTUO 2               
1 40144U 14053B   19119.31046194  .00000481  00000-0  16782-4 0  9996
2 40144  97.2723 203.6978 0011646   4.6663  80.7145 15.34299197259396
TECHNOSAT               
1 42829U 17042E   19119.21039866  .00000048  00000-0  10268-4 0  9998
2 42829  97.5698  14.1751 0013057 223.9235 136.0947 14.90953200 97416
FLYING LAPTOP           
1 42831U 17042G   19119.19774415  .00000177  00000-0  23311-4 0  9990
2 42831  97.5705  14.2240 0012913 224.4864 135.5319 14.90983616 97417
HAWK-A                  
1 43765U 18099H   19119.17181387 -.00000211  00000-0 -13556-4 0  9999
2 43765  97.7452 191.9139 0016029 139.9594 220.2812 14.95963448 21881
HAWK-B                  
1 43794U 18099AN  19119.17220952 -.00000217  00000-0 -14111-4 0  9997
2 43794  97.7451 191.9143 0016114 140.1932 220.0474 14.95963002 21879
HAWK-C                  
1 43799U 18099AT  19119.17201155 -.00000212  00000-0 -13676-4 0  9996
2 43799  97.7450 191.8308 0016007 139.7919 220.4489 14.95964730 21885
